ONEWEB-0032             
1 45141U 20008L   24098.54574511  .00000097  00000+0  24179-3 0  9991
2 45141  87.8994 195.4011 0001809 101.2154 258.9177 13.10458752203443
ONEWEB-0033             
1 45142U 20008M   24098.52077599  .00004181  00000+0  11951-1 0  9994
2 45142  87.8986 195.4157 0002197 110.3154 249.8209 13.10285373204250
ONEWEB-0035             
1 45143U 20008N   24098.70510697 -.00003208  00000+0 -92262-2 0  9992
2 45143  87.9000 195.3558 0001949 108.6833 251.4506 13.10394507203103
ONEWEB-0036             
1 45144U 20008P   24098.69514307 -.00003277  00000+0 -94211-2 0  9995
2 45144  87.9029 195.3167 0001760 107.4488 252.6832 13.10426226203531
ONEWEB-0038             
1 45145U 20008Q   24098.49775374 -.00000161  00000+0 -48928-3 0  9991
2 45145  87.9032 180.2959 0001229  90.1056 270.0213 13.11417339205385
ONEWEB-0039             
1 45146U 20008R   24098.52408612  .00002661  00000+0  75968-2 0  9992
2 45146  87.8991 195.3677 0001935  90.6187 269.5162 13.10258854204083
ONEWEB-0040             
1 45147U 20008S   24098.51747174  .00001987  00000+0  56612-2 0  9996
2 45147  87.8999 195.3656 0001792 104.4604 255.6723 13.10278466203009
